start=new Date('2023-02-09T00:00:00.000Z').valueOf();
sats=[{"RA_OF_ASC_NODE":"282.6505","ELEMENT_SET_NO":"999","FILE":"3780893","REV_AT_EPOCH":"2445","GP_ID":"224862595","OBJECT_TYPE":"PAYLOAD","REF_FRAME":"TEME","COUNTRY_CODE":"US","INCLINATION":"97.6511","TLE_LINE1":"1 53660U 22105N   23039.73067977  .00005432  00000-0  42699-3 0  9990","MEAN_MOTION_DDOT":"0.0000000000000","ARG_OF_PERICENTER":"90.2081","DECAY_DATE":null,"TIME_SYSTEM":"UTC","MEAN_MOTION":"15.01274825","BSTAR":"0.00042699000000","OBJECT_ID":"2022-105N","SEMIMAJOR_AXIS":"6941.101","CENTER_NAME":"EARTH","TLE_LINE2":"2 53660  97.6511 282.6505 0003919  90.2081 269.9593 15.01274825 24454","RCS_SIZE":"LARGE","APOAPSIS":"565.686","MEAN_ELEMENT_THEORY":"SGP4","MEAN_ANOMALY":"269.9593","EPOCH":"2023-02-08T17:32:10.732128","EPHEMERIS_TYPE":"0","ECCENTRICITY":"0.00039190","SITE":"AFWTR","PERIAPSIS":"560.246","CLASSIFICATION_TYPE":"U","NORAD_CAT_ID":"53660","PERIOD":"95.918","LAUNCH_DATE":"2022-08-31","OBJECT_NAME":"STARLINK-4473","MEAN_MOTION_DOT":"0.00005432"},{"INCLINATION":"97.6515","TLE_LINE1":"1 53661U 22105P   23039.86768537 -.00001314  00000-0 -97633-4 0  9991","DECAY_DATE":null,"MEAN_MOTION_DDOT":"0.0000000000000","ARG_OF_PERICENTER":"75.2367","OBJECT_TYPE":"PAYLOAD","REF_FRAME":"TEME","COUNTRY_CODE":"US","RA_OF_ASC_NODE":"282.7875","REV_AT_EPOCH":"2447","FILE":"3780893","GP_ID":"224861343","ELEMENT_SET_NO":"999","OBJECT_NAME":"STARLINK-4472","MEAN_MOTION_DOT":"-0.00001314","PERIAPSIS":"560.492","CLASSIFICATION_TYPE":"U","SITE":"AFWTR","ECCENTRICITY":"0.00035510","LAUNCH_DATE":"2022-08-31","NORAD_CAT_ID":"53661","PERIOD":"95.918","MEAN_ANOMALY":"284.9251","EPHEMERIS_TYPE":"0","EPOCH":"2023-02-08T20:49:28.015968","BSTAR":"-0.00009763300000","SEMIMAJOR_AXIS":"6941.092","OBJECT_ID":"2022-105P","CENTER_NAME":"EARTH","TIME_SYSTEM":"UTC","MEAN_MOTION":"15.01277757","RCS_SIZE":"LARGE","MEAN_ELEMENT_THEORY":"SGP4","APOAPSIS":"565.422","TLE_LINE2":"2 53661  97.6515 282.7875 0003551  75.2367 284.9251 15.01277757 24479"},{"RA_OF_ASC_NODE":"282.6408","REV_AT_EPOCH":"2445","FILE":"3780893","GP_ID":"224861094","ELEMENT_SET_NO":"999","OBJECT_TYPE":"PAYLOAD","REF_FRAME":"TEME","COUNTRY_CODE":"US","INCLINATION":"97.6509","TLE_LINE1":"1 53662U 22105Q   23039.72697423  .00002071  00000-0  16574-3 0  9995","DECAY_DATE":null,"ARG_OF_PERICENTER":"96.1488","MEAN_MOTION_DDOT":"0.0000000000000","BSTAR":"0.00016574000000","SEMIMAJOR_AXIS":"6941.101","CENTER_NAME":"EARTH","OBJECT_ID":"2022-105Q","TIME_SYSTEM":"UTC","MEAN_MOTION":"15.01274962","RCS_SIZE":"LARGE","APOAPSIS":"565.928","MEAN_ELEMENT_THEORY":"SGP4","TLE_LINE2":"2 53662  97.6509 282.6408 0004268  96.1488 264.0223 15.01274962 24457","MEAN_ANOMALY":"264.0223","EPHEMERIS_TYPE":"0","EPOCH":"2023-02-08T17:26:50.573472","PERIAPSIS":"560.003","CLASSIFICATION_TYPE":"U","ECCENTRICITY":"0.00042680","SITE":"AFWTR","LAUNCH_DATE":"2022-08-31","NORAD_CAT_ID":"53662","PERIOD":"95.918","OBJECT_NAME":"STARLINK-4357","MEAN_MOTION_DOT":"0.00002071"},{"ARG_OF_PERICENTER":"85.0791","MEAN_MOTION_DDOT":"0.0000000000000","DECAY_DATE":null,"INCLINATION":"97.6524","TLE_LINE1":"1 53663U 22105R   23039.66588795 -.00001438  00000-0 -10736-3 0  9992","COUNTRY_CODE":"US","OBJECT_TYPE":"PAYLOAD","REF_FRAME":"TEME","ELEMENT_SET_NO":"999","FILE":"3780893","REV_AT_EPOCH":"2444","GP_ID":"224862345","RA_OF_ASC_NODE":"282.5846","MEAN_MOTION_DOT":"-0.00001438","OBJECT_NAME":"STARLINK-4457","NORAD_CAT_ID":"53663","PERIOD":"95.920","LAUNCH_DATE":"2022-08-31","ECCENTRICITY":"0.00040910","SITE":"AFWTR","CLASSIFICATION_TYPE":"U","PERIAPSIS":"560.186","EPOCH":"2023-02-08T15:58:52.718880","EPHEMERIS_TYPE":"0","MEAN_ANOMALY":"275.0900","TLE_LINE2":"2 53663  97.6524 282.5846 0004091  85.0791 275.0900 15.01255405 24442","RCS_SIZE":"LARGE","MEAN_ELEMENT_THEORY":"SGP4","APOAPSIS":"565.866","TIME_SYSTEM":"UTC","MEAN_MOTION":"15.01255405","BSTAR":"-0.00010736000000","OBJECT_ID":"2022-105R","SEMIMAJOR_AXIS":"6941.161","CENTER_NAME":"EARTH"},{"RA_OF_ASC_NODE":"282.5699","REV_AT_EPOCH":"2444","FILE":"3780893","GP_ID":"224862096","ELEMENT_SET_NO":"999","OBJECT_TYPE":"PAYLOAD","REF_FRAME":"TEME","COUNTRY_CODE":"US","INCLINATION":"97.6529","TLE_LINE1":"1 53664U 22105S   23039.65847606  .00000414  00000-0  36862-4 0  9991","DECAY_DATE":null,"MEAN_MOTION_DDOT":"0.0000000000000","ARG_OF_PERICENTER":"88.1929","BSTAR":"0.00003686200000","SEMIMAJOR_AXIS":"6941.139","OBJECT_ID":"2022-105S","CENTER_NAME":"EARTH","TIME_SYSTEM":"UTC","MEAN_MOTION":"15.01262475","RCS_SIZE":"LARGE","MEAN_ELEMENT_THEORY":"SGP4","APOAPSIS":"565.078","TLE_LINE2":"2 53664  97.6529 282.5699 0002988  88.1929 271.9638 15.01262475 24442","MEAN_ANOMALY":"271.9638","EPHEMERIS_TYPE":"0","EPOCH":"2023-02-08T15:48:12.331584","CLASSIFICATION_TYPE":"U","PERIAPSIS":"560.930","SITE":"AFWTR","ECCENTRICITY":"0.00029880","LAUNCH_DATE":"2022-08-31","NORAD_CAT_ID":"53664","PERIOD":"95.919","OBJECT_NAME":"STARLINK-4471","MEAN_MOTION_DOT":"0.00000414"},{"COUNTRY_CODE":"US","REF_FRAME":"TEME","OBJECT_TYPE":"PAYLOAD","ELEMENT_SET_NO":"999","GP_ID":"224860844","FILE":"3780893","REV_AT_EPOCH":"2444","RA_OF_ASC_NODE":"282.5807","MEAN_MOTION_DDOT":"0.0000000000000","ARG_OF_PERICENTER":"87.2204","DECAY_DATE":null,"TLE_LINE1":"1 53665U 22105T   23039.66242413  .00000714  00000-0  60161-4 0  9990","INCLINATION":"97.6525","EPOCH":"2023-02-08T15:53:53.444832","EPHEMERIS_TYPE":"0","MEAN_ANOMALY":"272.9444","TLE_LINE2":"2 53665  97.6525 282.5807 0003699  87.2204 272.9444 15.01265385 24445","MEAN_ELEMENT_THEORY":"SGP4","APOAPSIS":"565.563","RCS_SIZE":"LARGE","MEAN_MOTION":"15.01265385","TIME_SYSTEM":"UTC","OBJECT_ID":"2022-105T","SEMIMAJOR_AXIS":"6941.130","CENTER_NAME":"EARTH","BSTAR":"0.00006016100000","MEAN_MOTION_DOT":"0.00000714","OBJECT_NAME":"STARLINK-4334","PERIOD":"95.919","NORAD_CAT_ID":"53665","LAUNCH_DATE":"2022-08-31","ECCENTRICITY":"0.00036990","SITE":"AFWTR","PERIAPSIS":"560.428","CLASSIFICATION_TYPE":"U"},{"TLE_LINE2":"2 53666  97.6540 282.6254 0002167  95.6840 264.4631 15.01265648 24455","MEAN_ELEMENT_THEORY":"SGP4","APOAPSIS":"564.499","RCS_SIZE":"LARGE","MEAN_MOTION":"15.01265648","TIME_SYSTEM":"UTC","SEMIMAJOR_AXIS":"6941.129","OBJECT_ID":"2022-105U","CENTER_NAME":"EARTH","BSTAR":"0.00016446000000","EPOCH":"2023-02-08T17:19:11.869824","EPHEMERIS_TYPE":"0","MEAN_ANOMALY":"264.4631","PERIOD":"95.919","NORAD_CAT_ID":"53666","LAUNCH_DATE":"2022-08-31","SITE":"AFWTR","ECCENTRICITY":"0.00021670","PERIAPSIS":"561.490","CLASSIFICATION_TYPE":"U","MEAN_MOTION_DOT":"0.00002054","OBJECT_NAME":"STARLINK-4449","ELEMENT_SET_NO":"999","GP_ID":"224861594","REV_AT_EPOCH":"2445","FILE":"3780893","RA_OF_ASC_NODE":"282.6254","COUNTRY_CODE":"US","REF_FRAME":"TEME","OBJECT_TYPE":"PAYLOAD","MEAN_MOTION_DDOT":"0.0000000000000","ARG_OF_PERICENTER":"95.6840","DECAY_DATE":null,"TLE_LINE1":"1 53666U 22105U   23039.72166516  .00002054  00000-0  16446-3 0  9992","INCLINATION":"97.6540"},{"MEAN_MOTION_DDOT":"0.0000000000000","ARG_OF_PERICENTER":"91.1652","DECAY_DATE":null,"TLE_LINE1":"1 53667U 22105V   23039.66217877 -.00000018  00000-0  31715-5 0  9990","INCLINATION":"97.6517","ELEMENT_SET_NO":"999","GP_ID":"224861846","FILE":"3780893","REV_AT_EPOCH":"2444","RA_OF_ASC_NODE":"282.5812","COUNTRY_CODE":"US","REF_FRAME":"TEME","OBJECT_TYPE":"PAYLOAD","PERIOD":"95.919","NORAD_CAT_ID":"53667","LAUNCH_DATE":"2022-08-31","ECCENTRICITY":"0.00035100","SITE":"AFWTR","PERIAPSIS":"560.559","CLASSIFICATION_TYPE":"U","MEAN_MOTION_DOT":"-0.00000018","OBJECT_NAME":"STARLINK-4406","TLE_LINE2":"2 53667  97.6517 282.5812 0003510  91.1652 268.9974 15.01265281 24445","MEAN_ELEMENT_THEORY":"SGP4","APOAPSIS":"565.432","RCS_SIZE":"LARGE","MEAN_MOTION":"15.01265281","TIME_SYSTEM":"UTC","OBJECT_ID":"2022-105V","SEMIMAJOR_AXIS":"6941.131","CENTER_NAME":"EARTH","BSTAR":"0.00000317150000","EPOCH":"2023-02-08T15:53:32.245728","EPHEMERIS_TYPE":"0","MEAN_ANOMALY":"268.9974"},{"TLE_LINE2":"2 53668  97.6548 282.6257 0001992  98.5520 261.5929 15.01268181 24453","RCS_SIZE":"LARGE","APOAPSIS":"564.369","MEAN_ELEMENT_THEORY":"SGP4","TIME_SYSTEM":"UTC","MEAN_MOTION":"15.01268181","BSTAR":"0.00024328000000","SEMIMAJOR_AXIS":"6941.122","CENTER_NAME":"EARTH","OBJECT_ID":"2022-105W","EPOCH":"2023-02-08T17:18:50.761440","EPHEMERIS_TYPE":"0","MEAN_ANOMALY":"261.5929","NORAD_CAT_ID":"53668","PERIOD":"95.919","LAUNCH_DATE":"2022-08-31","SITE":"AFWTR","ECCENTRICITY":"0.00019920","CLASSIFICATION_TYPE":"U","PERIAPSIS":"561.604","MEAN_MOTION_DOT":"0.00003068","OBJECT_NAME":"STARLINK-4458","ELEMENT_SET_NO":"999","REV_AT_EPOCH":"2445","FILE":"3780893","GP_ID":"224862596","RA_OF_ASC_NODE":"282.6257","COUNTRY_CODE":"US","OBJECT_TYPE":"PAYLOAD","REF_FRAME":"TEME","ARG_OF_PERICENTER":"98.5520","MEAN_MOTION_DDOT":"0.0000000000000","DECAY_DATE":null,"INCLINATION":"97.6548","TLE_LINE1":"1 53668U 22105W   23039.72142085  .00003068  00000-0  24328-3 0  9993"},{"DECAY_DATE":null,"MEAN_MOTION_DDOT":"0.0000000000000","ARG_OF_PERICENTER":"93.2275","INCLINATION":"97.6546","TLE_LINE1":"1 53669U 22105X   23039.65662255  .00000184  00000-0  18895-4 0  9991","FILE":"3780893","REV_AT_EPOCH":"2444","GP_ID":"224861344","ELEMENT_SET_NO":"999","RA_OF_ASC_NODE":"282.5623","COUNTRY_CODE":"US","OBJECT_TYPE":"PAYLOAD","REF_FRAME":"TEME","LAUNCH_DATE":"2022-08-31","NORAD_CAT_ID":"53669","PERIOD":"95.919","PERIAPSIS":"561.265","CLASSIFICATION_TYPE":"U","ECCENTRICITY":"0.00025040","SITE":"AFWTR","MEAN_MOTION_DOT":"0.00000184","OBJECT_NAME":"STARLINK-4464","RCS_SIZE":"LARGE","APOAPSIS":"564.742","MEAN_ELEMENT_THEORY":"SGP4","TLE_LINE2":"2 53669  97.6546 282.5623 0002504  93.2275 266.9236 15.01262714 24442","BSTAR":"0.00001889500000","SEMIMAJOR_AXIS":"6941.138","OBJECT_ID":"2022-105X","CENTER_NAME":"EARTH","TIME_SYSTEM":"UTC","MEAN_MOTION":"15.01262714","EPHEMERIS_TYPE":"0","EPOCH":"2023-02-08T15:45:32.188320","MEAN_ANOMALY":"266.9236"}];
